GLOBALSTAR M094 [+]     
1 39074U 13005C   23232.05146418 -.00000102  00000+0  11495-4 0  9990
2 39074  51.9964  53.3493 0000630  83.2445 276.8493 12.62267060488147
GLOBALSTAR M096 [+]     
1 39075U 13005D   23231.11430665 -.00000076  00000+0  15446-3 0  9996
2 39075  52.0067 104.1952 0000379  73.6507 286.4401 12.62268040487279
GLOBALSTAR M078 [+]     
1 39076U 13005E   23231.16687362 -.00000112  00000+0 -44890-4 0  9998
2 39076  51.9851 189.4509 0001076 126.6553 233.4413 12.62269502485769
GLOBALSTAR M095 [+]     
1 39077U 13005F   23231.27295360 -.00000107  00000+0 -17074-4 0  9992
2 39077  51.9781 186.6598 0000532 154.8725 205.2167 12.62267992485785
GLOBALSTAR M087 [+]     
1 52888U 22064A   23231.17973270 -.00000112  00000+0  31781-4 0  9990
2 52888  51.9742 184.9331 0009350 317.9288  42.0894 13.37550786 56974
